#dP2024  7  6  0  0  0.00000000      96 __u+U IGS20 FIT  IAC
## 2321 518400.00000000   900.00000000 60497 0.0000000000000
+  130   C01C02C03C04C05C06C07C08C09C10C11C12C13C14C16C19C20
+        C21C22C23C24C25C26C27C28C29C30C32C33C34C35C36C37C38
+        C39C40C41C42C43C44C45C59C60C62E02E03E04E05E07E08E09
+        E10E11E12E13E14E15E18E19E21E25E26E27E30E31E33E34E36
+        G01G02G03G04G05G06G07G08G09G10G11G12G13G14G15G16G17
+        G18G19G20G21G22G23G24G25G26G27G28G29G30G31G32J02J03
+        J04J07R01R02R03R04R05R06R07R08R09R10R11R12R13R14R15
+        R16R17R18R19R20R21R22R23R24R25R26  0  0  0  0  0  0
++        17 16 19 17 17  9  9  9  9  9  8  8  9 11  9  7  7
++         7  7  7  7  7  7  7  7  7  7  7  7  7  7  7  7  8
++         8  8  7  7  7  7  7 18 17 18  4  4  4  4  4  4  4
++         4  4  4  4  4  4  4  4  4  4  4  4  5  4  4  4  4
++         4  4  4  4  4  3  4  4  4  3  4  3  4  4  4  4  3
++         4  3  4  4  4  4  4  3  4  4  4  4  4  4  3 10 10
++        10 17  7  6  6  6  6 15  6  6  6 15  6  6  7  6  6
++         6  6  6  7  7  6  6 15  6  8  8  0  0  0  0  0  0
%c M  cc GPS ccc cccc cccc cccc cccc ccccc ccccc ccccc ccccc
%c cc cc ccc ccc cccc cccc cccc cccc ccccc ccccc ccccc ccccc
%f  0.0000000  0.000000000  0.00000000000  0.000000000000000
%f  0.0000000  0.000000000  0.00000000000  0.000000000000000
%i    0    0    0    0      0      0      0      0         0
%i    0    0    0    0      0      0      0      0         0
/* INFORMATION & ANALYSIS CENTER (IAC)            RAPID DATA
/* S/V CLOCKS ARE ALIGNED TO GNSS TIME                      
/* G:C1WC2W R:C1PC2P E:C1XC5X C:C2IC6I J:C1CC2S             
/* PCV:IGS20_2317 OL/AL:FES2004  NONE     YN ORB:CoN CLK:CoN
*  2024 07 06  3 30  0.00000000
PC01 -34325.103571  24479.792185    848.386068    906.256459
PC02   4354.538985  41900.762756   -623.534998    829.933634
PC03 -14682.826281  39486.257474    449.552720    518.127592
PC04 -39589.817498  14447.745289   1307.302239   -637.877347
PC05  21809.276753  36063.097162   -896.727437   -629.882907
PC06  -9645.256263  22950.799094 -33955.529078    566.037429
PC07 -14579.889618  38101.314528  10208.253797   -575.445093
PC08    923.305536  36457.525721  21333.115571   -284.599154
PC09   1434.715030  25001.936969 -33358.255297      9.284324
PC10  -8527.242265  37989.099889  15764.097618    -62.742134
PC11   3083.806439 -15772.218852 -22752.267595    648.290139
PC12  22075.038240 -11838.512269 -12276.664476   -261.917406
PC13   4790.164676  38647.381201  16662.266741    438.695413
PC14   4541.253021 -26702.959774   6863.050425    911.384457
PC16 -10365.223887  22108.171884 -34106.091074   -637.134646
PC19   2377.934157  23377.174474 -15010.317543   -916.923733
PC20  -9798.857572  26097.590575    677.021415   -653.566357
PC21  17256.564385 -13182.874082 -17538.139157   -961.064492
PC22  13991.152100   7044.045994 -23102.883619     51.469875
PC23 -21420.961047 -15864.087717  -8244.144080   -795.071983
PC24   4977.082527 -17620.911602  21047.364489    887.624085
PC25 -12195.854458 -23390.546632   9068.655175    443.987602
PC26  18588.192785  -1683.155078  20741.261486   -315.745048
PC27 -26593.884139   7504.611253   3889.829977    336.799329
PC28 -25222.237892  -3618.853267 -11371.641334    259.290994
PC29   7587.967690  14600.346650  22531.516732    304.386743
PC30 -14241.897702  16017.408193  17867.067460   -123.414241
PC32 -17167.848258  13148.336878  17634.862006   -665.499653
PC33  -2464.368064 -23463.824105  14921.738294   -960.495275
PC34  12508.921573 -16368.357050 -18833.378199    470.937246
PC35  25142.298662   2989.736870  11683.633918    320.345975
PC36  11835.727498  23656.164768  -8878.335317    128.883599
PC37 -18620.178140   1260.409558 -20723.806368   -928.297287
PC38  -5534.721661  31994.233074  27016.586739    165.503127
PC39 -17350.701787  20430.327571 -32529.285739     -9.037253
PC40 -22375.720242  34395.906381   8939.977467    -78.728715
PC41 -13649.733933  -8046.307411  23021.462525   -949.699568
PC42  10739.987862 -25668.590718  -2352.903389   -450.715205
PC43  -6538.152304 -15044.486183 -22590.276915     77.824917
PC44  26299.553051  -8504.941545  -3766.927704    524.513429
PC45  21274.323693  16218.759657   7987.398911   -101.492530
PC59 -32267.689344  27116.538005    253.485393      0.307279
PC60   7306.352382  41521.643467    781.992245     -0.650744
PC62 -39570.868831  14470.021631   -716.189183     -0.816885
PE02   3526.147419  29383.570421    806.742256    141.053432
PE03  -2183.452791  20203.721231 -21518.437246   -125.032139
PE04 -17090.846051  -7369.922600  23022.906946   -438.161883
PE05 -19698.022188  20819.497196  -7374.227301   4763.375241
PE07  25775.464992  -8999.532168 -11452.722169   -129.573155
PE08  16308.646263   7997.242710 -23374.673676   -298.222821
PE09 -25711.255289   8951.724037  11595.359245   -505.185654
PE10 -27768.153671  -9389.958632   4074.065219   -638.221626
PE11 -26126.311531  -1864.351714  13780.530524   2449.558378
PE12 -25117.645325 -14810.757332  -5145.156701  -1111.707247
PE13  26318.935186   2290.582240 -13349.943144    -22.772474
PE14  15872.224501 -25108.676471 -13127.626603    102.655392
PE15  24846.807671  15034.038460   5718.237184   -113.066177
PE18  -7142.041140  18383.090114  12992.696696    296.948148
PE19   4392.348759 -20759.731626  20649.292239    239.600106
PE21   8872.420422 -23122.319404  16218.132245   -603.841217
PE25  -9109.669105  22808.055135 -16512.516551      6.560982
PE26  11911.912229 -12031.753500 -24281.775120    504.067341
PE27  16598.081392  -3055.721508  24322.421129   -393.055765
PE30  14396.830687  18657.209792  17908.970505   -477.311873
PE31 -14434.364183 -18558.413838 -17975.064822    -28.490463
PE33  -8297.923877 -18705.863959 -21387.174424     13.485754
PE34   8870.576553  18744.266468  21116.338192   -121.000183
PE36 -12411.006320  11544.368240  24262.764016   -250.979519
PG01   8626.948790 -19114.059931  15727.609240    247.188242
PG02 -19870.224003 -13710.599979 -10936.887501   -404.517592
PG03 -12344.464790 -18665.035828  14238.376709    445.602885
PG04 -13403.798430  -8432.706578  21359.658248    397.900498
PG05   5337.116292  25971.782918    -85.637672   -178.765522
PG06 -15212.325990   8195.732911  20263.169142    178.399289
PG07 -25478.153639  -5555.789157  -5671.340979    -76.015625
PG08  -3760.330681 -16204.597667 -20725.278826    261.903968
PG09 -20980.103509   3089.896472  15939.127246    261.963547
PG10  11261.570153 -13237.314088 -19774.007095    -59.072291
PG11   -917.180766  15765.987754  21387.909443   -699.525448
PG12  10258.552728  21152.005564  12126.929089   -519.936927
PG13  -6307.640981  18270.965701 -18321.809467    662.670411
PG14 -13846.733283   9164.435905 -20647.232730    442.092359
PG15   6003.776252  16068.152951 -20745.233117    177.913719
PG16    113.345508 -26148.093358   2632.598196   -244.674148
PG17 -22759.632047  13361.004457  -3274.907580    682.951269
PG18  25162.452753   4961.266462  -7293.869842   -633.380490
PG19 -19681.890578  16737.231064   4968.454200    506.382064
PG20    565.863374  24514.173409  10455.523904    373.069361
PG21 -15877.973011 -15417.740863 -14972.417719    110.811516
PG22 -10465.610024  17716.892452 -16536.246908    -36.119725
PG23  14955.645337    -23.503515 -21936.941258    267.056958
PG24  17810.460314  15223.743517 -13314.236638   -481.787204
PG25  15219.164899  11536.046442  18230.329089    498.210460
PG26   6561.742339 -20625.638741  14993.393922    125.026640
PG27   7572.281574 -20168.970167 -15539.662920    -30.386169
PG28  17231.898119  -7755.003096  18655.161946   -319.225214
PG29  19573.002585   1418.929853  17905.014745   -590.961306
PG30 -21606.768620   3528.120787 -15067.104323   -362.643908
PG31   6586.423696 -13790.180842  21512.931290   -226.968961
PG32  21233.460964 -15620.793425  -1981.495298   -613.547768
PJ02 -22368.358035  28947.390423 -16209.538773     -0.483054
PJ03 -27933.130805  23721.928388  25890.530976     -1.042854
PJ04 -30128.719729  28843.240875  11866.062518     50.499305
PJ07 -25379.132846  33658.858840    -25.042560     -0.020808
PR01   9552.150397 -23059.335164   5305.393139     90.507589
PR02   -759.004994 -16511.285205  19448.141890    -23.582705
PR03 -11728.031592   -907.864577  22686.027754    103.322561
PR04 -15901.634130  14641.662531  13581.147061    244.140885
PR05 -11795.773055  22450.817527  -2829.536533    134.141228
PR06   2361.530480  15685.956018 -19993.257976   -170.640574
PR07  11985.585514    264.715712 -22469.019191     86.059978
PR08  15791.302098 -14962.541664 -13235.053842     -5.632911
PR09  12516.381439  22064.417050  -2181.217875    196.095623
PR10  16203.833147  15391.660175  12365.626869   -186.176274
PR11  11752.525740  -1278.585298  22615.453257     19.108148
PR12   -644.877713 -18126.096562  17961.912975     42.118621
PR13 -10874.406242 -22555.975607   4856.861629    -49.034311
PR14 -16216.096810 -13601.939122 -14236.668697     26.661137
PR15 -11046.452740   2868.721220 -22787.646009     78.152852
PR16    685.496497  17917.730556 -18108.525928     27.101596
PR17 -24055.463597  -3588.021379  -7608.994108    102.077167
PR18 -23647.710846   3644.838086   8911.775036    150.523147
PR19 -13150.304730   8402.395698  20168.264981   -282.852421
PR20   9790.647777  10011.519309  21314.860592   -115.680108
PR21  23924.169046   3928.552879   7976.626621   -115.148680
PR22  23201.018470  -3728.720908  -9892.035876     92.952739
PR23   9806.477842  -9473.380348 -21570.387312   -126.004520
PR24 -10798.013315  -9894.658783 -20866.667726    -62.643309
PR25  24052.828361   4489.164827   7256.998330    -94.923517
PR26  15717.205429 -14015.546385 -14393.169233     -4.681687
EOF
